STARLINK-37578          
1 69451U 26127J   26177.91668981  .00014694  00000+0  99935-4 0  9996
2 69451  53.1576 213.7940 0001232  99.0992 200.7766 15.75221467  4200
STARLINK-37577          
1 69452U 26127K   26177.91369002  .00178121  00000+0  11397-2 0  9999
2 69452  53.1587 213.6504 0000703  69.3276 290.7820 15.75281984  2944
STARLINK-37500          
1 69453U 26127L   26177.92309522  .00198194  00000+0  12629-2 0  9993
2 69453  53.1579 213.7127 0001086 149.3817 210.7267 15.75314041  2941
STARLINK-37575          
1 69454U 26127M   26177.65568965 -.00782339  00000+0 -54582-2 0  9998
2 69454  53.1582 214.8835 0000386 113.9448 246.1613 15.75782968  2904
STARLINK-37642          
1 69455U 26127N   26177.91668981  .00059092  00000+0  38787-3 0  9998
2 69455  53.1576 213.7961 0001019  90.8735 207.1612 15.75184914  4200
STARLINK-37513          
1 69456U 26127P   26177.64538225  .00209987  00000+0  10374-2 0  9997
2 69456  53.1570 214.8121 0001256 142.9204 217.1906 15.80963311  2902
STARLINK-37563          
1 69457U 26127Q   26177.91668981  .00006961  00000+0  49585-4 0  9996
2 69457  53.1593 213.6369 0001049  99.7677 275.5097 15.75218895  4200
STARLINK-37565          
1 69458U 26127R   26177.90461066  .00257179  00000+0  16242-2 0  9992
2 69458  53.1586 213.5871 0000580  98.5312 261.5774 15.75339317  2941
STARLINK-37498          
1 69459U 26127S   26177.91668981  .00011203  00000+0  77215-4 0  9994
2 69459  53.1574 213.7386 0001094  96.0677 229.5661 15.75220515  4209
STARLINK-37384          
1 69460U 26127T   26177.91668981 -.00013016  00000+0 -80883-4 0  9997
2 69460  53.1596 213.5803 0001061  99.6664 303.2229 15.75235590  4205
STARLINK-37707          
1 69461U 26127U   26177.91668981 -.00019041  00000+0 -12032-3 0  9992
2 69461  53.1596 213.5301 0001075  95.0580 331.7175 15.75238700  4203
STARLINK-37525          
1 69462U 26127V   26177.90007175  .00186079  00000+0  11877-2 0  9993
2 69462  53.1592 213.5568 0001250 116.8842 243.2306 15.75313531  2941
STARLINK-37526          
1 69463U 26127W   26177.83242314  .00270239  00000+0  17049-2 0  9991
2 69463  53.1588 213.8437 0002211  75.8487 284.2779 15.75325528  2939
STARLINK-37574          
1 69464U 26127X   26177.91668981 -.00026512  00000+0 -16933-3 0  9990
2 69464  53.1590 213.4763 0001220  84.0153   8.5150 15.75237409  4215
STARLINK-37535          
1 69465U 26127Y   26177.83209129  .00267858  00000+0  16900-2 0  9998
2 69465  53.1581 213.8404 0001266  76.0500 284.0661 15.75330464  2939
STARLINK-37583          
1 69466U 26127Z   26177.93538270  .00232672  00000+0  11461-2 0  9995
2 69466  53.1578 213.0507 0001301 130.8942 229.2193 15.80964109  2959
STARLINK-37546          
1 69467U 26127AA  26177.91668981 -.00028710  00000+0 -18365-3 0  9996
2 69467  53.1580 213.3682 0000888  97.6338  46.3992 15.75251673  4213
STARLINK-37532          
1 69468U 26127AB  26177.93423768  .00149235  00000+0  74455-3 0  9997
2 69468  53.1577 213.0426 0001496 126.6489 233.4671 15.80933687  2959
STARLINK-37708          
1 69469U 26127AC  26177.91668981 -.00013586  00000+0 -84602-4 0  9991
2 69469  53.1578 213.3637 0000985  93.8540  52.0510 15.75239014  4218
STARLINK-37686          
1 69470U 26127AD  26177.91668981 -.00058072  00000+0 -37688-3 0  9993
2 69470  53.1584 213.3148 0000987  80.1511  89.6317 15.75262043  4212
STARLINK-37451          
1 69471U 26127AE  26177.92884439  .00243776  00000+0  11980-2 0  9994
2 69471  53.1580 213.0062 0001797  93.9866 266.1362 15.80982242  2953
DTC TEST OBJECT A       
1 69472U 26128A   26177.93193618  .00025739  00000+0  36493-3 0  9993
2 69472  54.9934 259.9957 0009723 323.9030  36.1349 15.56302358  2748
DTC TEST OBJECT B       
1 69473U 26128B   26177.92713015  .00020417  00000+0  28535-3 0  9998
2 69473  55.0021 259.9827 0009828 323.7849  36.2521 15.56840847  2738
TJS-25                  
1 69474U 26129A   26177.90326618 -.00000357  00000+0  00000+0 0  9992
2 69474   5.9742 330.2697 0002242 302.1022  88.0784  1.00273795   165
STARLINK-37816          
1 69478U 26131A   26177.91668981  .00298678  00000+0  15137-2 0  9996
2 69478  97.2833 198.7607 0000959  84.9353 160.0631 15.80721535  3570
STARLINK-37878          
1 69479U 26131B   26177.91668981  .00018404  00000+0  96607-4 0  9997
2 69479  97.2832 198.7462 0001217  87.6876 125.3780 15.80818301  2450
STARLINK-37817          
1 69480U 26131C   26177.91668981  .00061606  00000+0  32032-3 0  9992
2 69480  97.2836 198.7638 0000967  86.7264 166.8100 15.80800992  3570
STARLINK-37727          
1 69481U 26131D   26177.91668981  .00038047  00000+0  19860-3 0  9990
2 69481  97.2839 198.7650 0001470  92.1590 165.6478 15.80805119  3572
STARLINK-37814          
1 69482U 26131E   26177.91668981  .00030281  00000+0  15830-3 0  9996
2 69482  97.2837 198.7671 0000775  95.2056 166.8716 15.80813295  3574
STARLINK-37869          
1 69483U 26131F   26177.91668981  .00034507  00000+0  18020-3 0  9996
2 69483  97.2838 198.7688 0000645  96.2376 170.1122 15.80813358  3575
