OBJECT_NAME,OBJECT_ID,EPOCH,MEAN_MOTION,ECCENTRICITY,INCLINATION,RA_OF_ASC_NODE,ARG_OF_PERICENTER,MEAN_ANOMALY,EPHEMERIS_TYPE,CLASSIFICATION_TYPE,NORAD_CAT_ID,ELEMENT_SET_NO,REV_AT_EPOCH,BSTAR,MEAN_MOTION_DOT,MEAN_MOTION_DDOT
STARLINK-37578,2026-127J,2026-06-26T22:00:01.999584,15.75221467,.00012323,53.1576,213.7940,99.0992,200.7766,0,U,69451,999,420,.99934689E-4,.14694E-3,0
STARLINK-37577,2026-127K,2026-06-26T21:55:42.817728,15.75281984,.00007031,53.1587,213.6504,69.3276,290.7820,0,U,69452,999,294,.11396846E-2,.178121E-2,0
STARLINK-37500,2026-127L,2026-06-26T22:09:15.427008,15.75314041,.00010866,53.1579,213.7127,149.3817,210.7267,0,U,69453,999,294,.1262871E-2,.198194E-2,0
STARLINK-37575,2026-127M,2026-06-26T15:44:11.585760,15.75782968,.00003863,53.1582,214.8835,113.9448,246.1613,0,U,69454,999,290,-.54582216E-2,-.782339E-2,0
STARLINK-37642,2026-127N,2026-06-26T22:00:01.999584,15.75184914,.00010194,53.1576,213.7961,90.8735,207.1612,0,U,69455,999,420,.38787441E-3,.59092E-3,0
STARLINK-37513,2026-127P,2026-06-26T15:29:21.026400,15.80963311,.00012565,53.1570,214.8121,142.9204,217.1906,0,U,69456,999,290,.10374417E-2,.209987E-2,0
STARLINK-37563,2026-127Q,2026-06-26T22:00:01.999584,15.75218895,.00010495,53.1593,213.6369,99.7677,275.5097,0,U,69457,999,420,.49585251E-4,.6961E-4,0
STARLINK-37565,2026-127R,2026-06-26T21:42:38.361024,15.75339317,.000058,53.1586,213.5871,98.5312,261.5774,0,U,69458,999,294,.16242043E-2,.257179E-2,0
STARLINK-37498,2026-127S,2026-06-26T22:00:01.999584,15.75220515,.00010947,53.1574,213.7386,96.0677,229.5661,0,U,69459,999,420,.77215084E-4,.11203E-3,0
STARLINK-37384,2026-127T,2026-06-26T22:00:01.999584,15.75235590,.00010611,53.1596,213.5803,99.6664,303.2229,0,U,69460,999,420,-.80882667E-4,-.13016E-3,0
STARLINK-37707,2026-127U,2026-06-26T22:00:01.999584,15.75238700,.00010755,53.1596,213.5301,95.0580,331.7175,0,U,69461,999,420,-.12032346E-3,-.19041E-3,0
STARLINK-37525,2026-127V,2026-06-26T21:36:06.199200,15.75313531,.00012502,53.1592,213.5568,116.8842,243.2306,0,U,69462,999,294,.1187665E-2,.186079E-2,0
STARLINK-37526,2026-127W,2026-06-26T19:58:41.359296,15.75325528,.0002211,53.1588,213.8437,75.8487,284.2779,0,U,69463,999,293,.17048671E-2,.270239E-2,0
STARLINK-37574,2026-127X,2026-06-26T22:00:01.999584,15.75237409,.00012204,53.1590,213.4763,84.0153,8.5150,0,U,69464,999,421,-.16932865E-3,-.26512E-3,0
STARLINK-37535,2026-127Y,2026-06-26T19:58:12.687456,15.75330464,.00012661,53.1581,213.8404,76.0500,284.0661,0,U,69465,999,293,.16900177E-2,.267858E-2,0
STARLINK-37583,2026-127Z,2026-06-26T22:26:57.065280,15.80964109,.00013014,53.1578,213.0507,130.8942,229.2193,0,U,69466,999,295,.11460679E-2,.232672E-2,0
STARLINK-37546,2026-127AA,2026-06-26T22:00:01.999584,15.75251673,.00008883,53.1580,213.3682,97.6338,46.3992,0,U,69467,999,421,-.18365413E-3,-.2871E-3,0
STARLINK-37532,2026-127AB,2026-06-26T22:25:18.135552,15.80933687,.00014962,53.1577,213.0426,126.6489,233.4671,0,U,69468,999,295,.74454747E-3,.149235E-2,0
STARLINK-37708,2026-127AC,2026-06-26T22:00:01.999584,15.75239014,.00009856,53.1578,213.3637,93.8540,52.0510,0,U,69469,999,421,-.84601739E-4,-.13586E-3,0
STARLINK-37686,2026-127AD,2026-06-26T22:00:01.999584,15.75262043,.00009879,53.1584,213.3148,80.1511,89.6317,0,U,69470,999,421,-.37687899E-3,-.58072E-3,0
STARLINK-37451,2026-127AE,2026-06-26T22:17:32.155296,15.80982242,.00017973,53.1580,213.0062,93.9866,266.1362,0,U,69471,999,295,.11980365E-2,.243776E-2,0
DTC TEST OBJECT A,2026-128A,2026-06-26T22:21:59.285952,15.56302358,.00097234,54.9934,259.9957,323.9030,36.1349,0,U,69472,999,274,.36493419E-3,.25739E-3,0
DTC TEST OBJECT B,2026-128B,2026-06-26T22:15:04.044960,15.56840847,.00098289,55.0021,259.9827,323.7849,36.2521,0,U,69473,999,273,.28534587E-3,.20417E-3,0
TJS-25,2026-129A,2026-06-26T21:40:42.197952,1.00273795,.00022426,5.9742,330.2697,302.1022,88.0784,0,U,69474,999,16,0,-.357E-5,0
STARLINK-37816,2026-131A,2026-06-26T22:00:01.999584,15.80721535,.00009593,97.2833,198.7607,84.9353,160.0631,0,U,69478,999,357,.15137366E-2,.298678E-2,0
STARLINK-37878,2026-131B,2026-06-26T22:00:01.999584,15.80818301,.00012176,97.2832,198.7462,87.6876,125.3780,0,U,69479,999,245,.9660706E-4,.18404E-3,0
STARLINK-37817,2026-131C,2026-06-26T22:00:01.999584,15.80800992,.00009672,97.2836,198.7638,86.7264,166.8100,0,U,69480,999,357,.32032302E-3,.61606E-3,0
STARLINK-37727,2026-131D,2026-06-26T22:00:01.999584,15.80805119,.00014702,97.2839,198.7650,92.1590,165.6478,0,U,69481,999,357,.1986028E-3,.38047E-3,0
STARLINK-37814,2026-131E,2026-06-26T22:00:01.999584,15.80813295,.00007751,97.2837,198.7671,95.2056,166.8716,0,U,69482,999,357,.1583042E-3,.30281E-3,0
STARLINK-37869,2026-131F,2026-06-26T22:00:01.999584,15.80813358,.00006458,97.2838,198.7688,96.2376,170.1122,0,U,69483,999,357,.18020402E-3,.34507E-3,0
